STARLINK-30992          
1 58524U 23191S   26068.49264049  .00058041  00000+0  21248-2 0  9996
2 58524  43.0031 104.3339 0001543 249.8077 110.2608 15.27227181125440
COSMOS 2576             
1 59773U 24092A   26068.82603826  .00015211  00000+0  56283-3 0  9991
2 59773  97.4253 186.0053 0005946 159.7731 200.3745 15.27760963101271
